[{"OBJECT_NAME":"COSMOS 2251 DEB","OBJECT_ID":"1993-036BHS","EPOCH":"2026-03-02T01:15:24.070752","MEAN_MOTION":14.15520823,"ECCENTRICITY":0.02980499,"INCLINATION":73.7831,"RA_OF_ASC_NODE":206.1324,"ARG_OF_PERICENTER":14.3941,"MEAN_ANOMALY":99.0694,"EPHEMERIS_TYPE":0,"CLASSIFICATION_TYPE":"U","NORAD_CAT_ID":37278,"ELEMENT_SET_NO":999,"REV_AT_EPOCH":64951,"BSTAR":0.00064781964,"MEAN_MOTION_DOT":1.92e-5,"MEAN_MOTION_DDOT":0},{"OBJECT_NAME":"COSMOS 2251 DEB","OBJECT_ID":"1993-036BHU","EPOCH":"2026-03-01T14:12:16.196832","MEAN_MOTION":14.1982047,"ECCENTRICITY":0.01307043,"INCLINATION":74.0295,"RA_OF_ASC_NODE":276.0526,"ARG_OF_PERICENTER":25.3733,"MEAN_ANOMALY":335.3752,"EPHEMERIS_TYPE":0,"CLASSIFICATION_TYPE":"U","NORAD_CAT_ID":37280,"ELEMENT_SET_NO":999,"REV_AT_EPOCH":58442,"BSTAR":0.00098092165,"MEAN_MOTION_DOT":2.241e-5,"MEAN_MOTION_DDOT":0},{"OBJECT_NAME":"COSMOS 2251 DEB","OBJECT_ID":"1993-036BHY","EPOCH":"2026-02-05T07:55:19.503840","MEAN_MOTION":14.13024671,"ECCENTRICITY":0.0163535,"INCLINATION":74.0143,"RA_OF_ASC_NODE":60.0665,"ARG_OF_PERICENTER":200.9081,"MEAN_ANOMALY":178.3706,"EPHEMERIS_TYPE":0,"CLASSIFICATION_TYPE":"U","NORAD_CAT_ID":37284,"ELEMENT_SET_NO":999,"REV_AT_EPOCH":59946,"BSTAR":0.0017497,"MEAN_MOTION_DOT":3.683e-5,"MEAN_MOTION_DDOT":0},{"OBJECT_NAME":"COSMOS 2251 DEB","OBJECT_ID":"1993-036BJG","EPOCH":"2026-02-21T23:33:24.239520","MEAN_MOTION":14.0392426,"ECCENTRICITY":0.02094908,"INCLINATION":74.1288,"RA_OF_ASC_NODE":286.3242,"ARG_OF_PERICENTER":271.731,"MEAN_ANOMALY":85.9843,"EPHEMERIS_TYPE":0,"CLASSIFICATION_TYPE":"U","NORAD_CAT_ID":37292,"ELEMENT_SET_NO":999,"REV_AT_EPOCH":60848,"BSTAR":0.0008420817,"MEAN_MOTION_DOT":1.591e-5,"MEAN_MOTION_DDOT":0},{"OBJECT_NAME":"COSMOS 2251 DEB","OBJECT_ID":"1993-036BJK","EPOCH":"2026-03-01T12:03:13.151520","MEAN_MOTION":14.65808134,"ECCENTRICITY":0.00472853,"INCLINATION":74.0059,"RA_OF_ASC_NODE":129.723,"ARG_OF_PERICENTER":288.5343,"MEAN_ANOMALY":71.0692,"EPHEMERIS_TYPE":0,"CLASSIFICATION_TYPE":"U","NORAD_CAT_ID":37295,"ELEMENT_SET_NO":999,"REV_AT_EPOCH":83458,"BSTAR":0.00059416152,"MEAN_MOTION_DOT":3.264e-5,"MEAN_MOTION_DDOT":0},{"OBJECT_NAME":"COSMOS 2251 DEB","OBJECT_ID":"1993-036BJV","EPOCH":"2026-02-27T22:36:58.021344","MEAN_MOTION":14.36463826,"ECCENTRICITY":0.0045491,"INCLINATION":73.8701,"RA_OF_ASC_NODE":147.2753,"ARG_OF_PERICENTER":91.3702,"MEAN_ANOMALY":269.2662,"EPHEMERIS_TYPE":0,"CLASSIFICATION_TYPE":"U","NORAD_CAT_ID":37305,"ELEMENT_SET_NO":999,"REV_AT_EPOCH":67975,"BSTAR":0.00056672,"MEAN_MOTION_DOT":1.655e-5,"MEAN_MOTION_DDOT":0},{"OBJECT_NAME":"COSMOS 2251 DEB","OBJECT_ID":"1993-036BKC","EPOCH":"2026-03-02T07:20:47.934240","MEAN_MOTION":14.46450668,"ECCENTRICITY":0.00166526,"INCLINATION":74.0302,"RA_OF_ASC_NODE":55.6179,"ARG_OF_PERICENTER":148.4463,"MEAN_ANOMALY":211.7697,"EPHEMERIS_TYPE":0,"CLASSIFICATION_TYPE":"U","NORAD_CAT_ID":37312,"ELEMENT_SET_NO":999,"REV_AT_EPOCH":87314,"BSTAR":0.00052887147,"MEAN_MOTION_DOT":1.879e-5,"MEAN_MOTION_DDOT":0},{"OBJECT_NAME":"COSMOS 2251 DEB","OBJECT_ID":"1993-036BKG","EPOCH":"2026-03-02T10:36:07.617312","MEAN_MOTION":14.99891986,"ECCENTRICITY":0.00289906,"INCLINATION":74.0147,"RA_OF_ASC_NODE":219.6196,"ARG_OF_PERICENTER":275.6546,"MEAN_ANOMALY":84.1335,"EPHEMERIS_TYPE":0,"CLASSIFICATION_TYPE":"U","NORAD_CAT_ID":37316,"ELEMENT_SET_NO":999,"REV_AT_EPOCH":87336,"BSTAR":0.0031825134,"MEAN_MOTION_DOT":0.00040011,"MEAN_MOTION_DDOT":0},{"OBJECT_NAME":"COSMOS 2251 DEB","OBJECT_ID":"1993-036BKL","EPOCH":"2026-02-25T08:29:12.749856","MEAN_MOTION":14.79981961,"ECCENTRICITY":0.00431531,"INCLINATION":74.0457,"RA_OF_ASC_NODE":71.4209,"ARG_OF_PERICENTER":142.9332,"MEAN_ANOMALY":217.4839,"EPHEMERIS_TYPE":0,"CLASSIFICATION_TYPE":"U","NORAD_CAT_ID":37320,"ELEMENT_SET_NO":999,"REV_AT_EPOCH":67250,"BSTAR":0.00059232043,"MEAN_MOTION_DOT":4.518e-5,"MEAN_MOTION_DDOT":0},{"OBJECT_NAME":"COSMOS 2251 DEB","OBJECT_ID":"1993-036BKS","EPOCH":"2026-02-25T01:08:41.687808","MEAN_MOTION":14.6202884,"ECCENTRICITY":0.00574291,"INCLINATION":74.0217,"RA_OF_ASC_NODE":192.3768,"ARG_OF_PERICENTER":302.2672,"MEAN_ANOMALY":57.2937,"EPHEMERIS_TYPE":0,"CLASSIFICATION_TYPE":"U","NORAD_CAT_ID":37326,"ELEMENT_SET_NO":999,"REV_AT_EPOCH":86569,"BSTAR":0.00045709783,"MEAN_MOTION_DOT":2.316e-5,"MEAN_MOTION_DDOT":0},{"OBJECT_NAME":"COSMOS 2251 DEB","OBJECT_ID":"1993-036BKW","EPOCH":"2026-03-02T21:56:09.660480","MEAN_MOTION":14.59813983,"ECCENTRICITY":0.0058758,"INCLINATION":74.0179,"RA_OF_ASC_NODE":142.0073,"ARG_OF_PERICENTER":327.9667,"MEAN_ANOMALY":31.7931,"EPHEMERIS_TYPE":0,"CLASSIFICATION_TYPE":"U","NORAD_CAT_ID":37330,"ELEMENT_SET_NO":999,"REV_AT_EPOCH":87538,"BSTAR":0.00030214,"MEAN_MOTION_DOT":1.448e-5,"MEAN_MOTION_DDOT":0},{"OBJECT_NAME":"COSMOS 2251 DEB","OBJECT_ID":"1993-036BKX","EPOCH":"2026-03-02T07:21:23.631264","MEAN_MOTION":14.35338407,"ECCENTRICITY":0.005724,"INCLINATION":74.0724,"RA_OF_ASC_NODE":282.3315,"ARG_OF_PERICENTER":276.6242,"MEAN_ANOMALY":82.8398,"EPHEMERIS_TYPE":0,"CLASSIFICATION_TYPE":"U","NORAD_CAT_ID":37331,"ELEMENT_SET_NO":999,"REV_AT_EPOCH":85901,"BSTAR":0.00051125374,"MEAN_MOTION_DOT":1.467e-5,"MEAN_MOTION_DDOT":0},{"OBJECT_NAME":"COSMOS 2251 DEB","OBJECT_ID":"1993-036BLC","EPOCH":"2026-03-01T17:53:12.380352","MEAN_MOTION":14.3279795,"ECCENTRICITY":0.00308324,"INCLINATION":74.0422,"RA_OF_ASC_NODE":186.9768,"ARG_OF_PERICENTER":248.0385,"MEAN_ANOMALY":111.7488,"EPHEMERIS_TYPE":0,"CLASSIFICATION_TYPE":"U","NORAD_CAT_ID":37336,"ELEMENT_SET_NO":999,"REV_AT_EPOCH":66251,"BSTAR":8.7721171e-5,"MEAN_MOTION_DOT":2.14e-6,"MEAN_MOTION_DDOT":0},{"OBJECT_NAME":"COSMOS 2251 DEB","OBJECT_ID":"1993-036BLG","EPOCH":"2026-03-02T20:44:43.799712","MEAN_MOTION":14.37029893,"ECCENTRICITY":0.001889,"INCLINATION":74.0247,"RA_OF_ASC_NODE":129.7375,"ARG_OF_PERICENTER":213.8143,"MEAN_ANOMALY":146.1807,"EPHEMERIS_TYPE":0,"CLASSIFICATION_TYPE":"U","NORAD_CAT_ID":37340,"ELEMENT_SET_NO":999,"REV_AT_EPOCH":85218,"BSTAR":0.00018334,"MEAN_MOTION_DOT":5.18e-6,"MEAN_MOTION_DDOT":0},{"OBJECT_NAME":"COSMOS 2251 DEB","OBJECT_ID":"1993-036BLL","EPOCH":"2026-03-02T13:00:54.364896","MEAN_MOTION":14.4371683,"ECCENTRICITY":0.0093093,"INCLINATION":73.9763,"RA_OF_ASC_NODE":354.4238,"ARG_OF_PERICENTER":183.9559,"MEAN_ANOMALY":176.0874,"EPHEMERIS_TYPE":0,"CLASSIFICATION_TYPE":"U","NORAD_CAT_ID":37483,"ELEMENT_SET_NO":999,"REV_AT_EPOCH":66431,"BSTAR":0.00021141,"MEAN_MOTION_DOT":7.28e-6,"MEAN_MOTION_DDOT":0},{"OBJECT_NAME":"COSMOS 2251 DEB","OBJECT_ID":"1993-036BLM","EPOCH":"2026-02-28T09:00:14.280192","MEAN_MOTION":14.42273965,"ECCENTRICITY":0.00352596,"INCLINATION":73.8234,"RA_OF_ASC_NODE":62.6448,"ARG_OF_PERICENTER":82.7042,"MEAN_ANOMALY":344.4944,"EPHEMERIS_TYPE":0,"CLASSIFICATION_TYPE":"U","NORAD_CAT_ID":37484,"ELEMENT_SET_NO":999,"REV_AT_EPOCH":66498,"BSTAR":0.00071600149,"MEAN_MOTION_DOT":2.353e-5,"MEAN_MOTION_DDOT":0}]
