COSMOS 2251 DEB         
1 37278U 93036BHS 26061.05236193  .00001920  00000+0  64782-3 0  9993
2 37278  73.7831 206.1324 0298049  14.3941  99.0694 14.15520823649513
COSMOS 2251 DEB         
1 37280U 93036BHU 26060.59185413  .00002241  00000+0  98092-3 0  9990
2 37280  74.0295 276.0526 0130704  25.3733 335.3752 14.19820470584422
COSMOS 2251 DEB         
1 37284U 93036BHY 26036.33008685  .00003683  00000+0  17497-2 0  9994
2 37284  74.0143  60.0665 0163535 200.9081 178.3706 14.13024671599465
COSMOS 2251 DEB         
1 37292U 93036BJG 26052.98153055  .00001591  00000+0  84208-3 0  9995
2 37292  74.1288 286.3242 0209490 271.7310  85.9843 14.03924260608481
COSMOS 2251 DEB         
1 37295U 93036BJK 26060.50223555  .00003264  00000+0  59416-3 0  9990
2 37295  74.0059 129.7230 0047285 288.5343  71.0692 14.65808134834589
COSMOS 2251 DEB         
1 37305U 93036BJV 26058.94233821  .00001655  00000+0  56672-3 0  9997
2 37305  73.8701 147.2753 0045491  91.3702 269.2662 14.36463826679750
COSMOS 2251 DEB         
1 37312U 93036BKC 26061.30611035  .00001879  00000+0  52887-3 0  9998
2 37312  74.0302  55.6179 0016652 148.4463 211.7697 14.46450668873147
COSMOS 2251 DEB         
1 37316U 93036BKG 26061.44175483  .00040011  00000+0  31825-2 0  9998
2 37316  74.0147 219.6196 0028990 275.6546  84.1335 14.99891986873367
COSMOS 2251 DEB         
1 37320U 93036BKL 26056.35361979  .00004518  00000+0  59232-3 0  9999
2 37320  74.0457  71.4209 0043153 142.9332 217.4839 14.79981961672506
COSMOS 2251 DEB         
1 37326U 93036BKS 26056.04770472  .00002316  00000+0  45710-3 0  9993
2 37326  74.0217 192.3768 0057429 302.2672  57.2937 14.62028840865691
COSMOS 2251 DEB         
1 37330U 93036BKW 26061.91400070  .00001448  00000+0  30214-3 0  9992
2 37330  74.0179 142.0073 0058758 327.9667  31.7931 14.59813983875382
COSMOS 2251 DEB         
1 37331U 93036BKX 26061.30652351  .00001467  00000+0  51125-3 0  9992
2 37331  74.0724 282.3315 0057240 276.6242  82.8398 14.35338407859013
COSMOS 2251 DEB         
1 37336U 93036BLC 26060.74528218  .00000214  00000+0  87721-4 0  9999
2 37336  74.0422 186.9768 0030832 248.0385 111.7488 14.32797950662511
COSMOS 2251 DEB         
1 37340U 93036BLG 26061.86439583  .00000518  00000+0  18334-3 0  9994
2 37340  74.0247 129.7375 0018890 213.8143 146.1807 14.37029893852182
COSMOS 2251 DEB         
1 37483U 93036BLL 26061.54229589  .00000728  00000+0  21141-3 0  9993
2 37483  73.9763 354.4238 0093093 183.9559 176.0874 14.43716830664315
COSMOS 2251 DEB         
1 37484U 93036BLM 26059.37516528  .00002353  00000+0  71600-3 0  9995
2 37484  73.8234  62.6448 0035259  82.7042 344.4944 14.42273965664980
